NORAD_CAT_ID,OBJECT_NAME,OBJECT_TYPE,EPOCH,MEAN_MOTION,ECCENTRICITY,INCLINATION,RA_OF_ASC_NODE,ARG_OF_PERICENTER,MEAN_ANOMALY,BSTAR,MEAN_MOTION_DOT,MEAN_MOTION_DDOT,TLE_LINE0,TLE_LINE1,TLE_LINE2,SEMIMAJOR_AXIS,PERIOD,APOGEE,PERIGEE,DECAYED
50836.0,STARLINK-3330,PAYLOAD,2023-02-10 16:06:40,15.08851338,0.0001187,53.2136,180.5481,109.3324,250.7797,0.00019898,2.881e-05,0.0,0 STARLINK-3330,1 50836U 22001AK  23041.67130061  .00002881  00000-0  19898-3 0  9998,2 50836  53.2136 180.5481 0001187 109.3324 250.7797 15.08851338 60623,6917.846,95.437,540.532,538.89,0.0
50836.0,STARLINK-3330,PAYLOAD,2023-02-11 04:49:46,15.08842718,0.0001667,53.2127,178.1757,98.4643,261.6538,0.00022633,3.316e-05,0.0,0 STARLINK-3330,1 50836U 22001AK  23042.20122884  .00003316  00000-0  22633-3 0  9997,2 50836  53.2127 178.1757 0001667  98.4643 261.6538 15.08842718 62063,6917.872,95.437,540.89,538.584,0.0
50836.0,STARLINK-3330,PAYLOAD,2023-02-11 11:11:18,15.08836242,0.0001158,53.2135,176.9818,101.4799,258.6323,-2.8532e-05,-7.42e-06,0.0,0 STARLINK-3330,1 50836U 22001AK  23042.46618919 -.00000742  00000-0 -28532-4 0  9991,2 50836  53.2135 176.9818 0001158 101.4799 258.6323 15.08836242 60744,6917.892,95.438,540.558,538.956,0.0
50836.0,STARLINK-3330,PAYLOAD,2023-02-11 12:46:41,15.08838025,0.0001119,53.2136,176.6847,90.8648,269.2472,2.6041e-05,1.27e-06,0.0,0 STARLINK-3330,1 50836U 22001AK  23042.53242949  .00000127  00000-0  26041-4 0  9993,2 50836  53.2136 176.6847 0001119  90.8648 269.2472 15.08838025 60750,6917.886,95.438,540.526,538.977,0.0
50836.0,STARLINK-3330,PAYLOAD,2023-02-12 07:51:20,15.08828519,0.0001251,53.2138,173.119,101.9588,258.1545,-4.1714e-05,-9.51e-06,0.0,0 STARLINK-3330,1 50836U 22001AK  23043.32731823 -.00000951  00000-0 -41714-4 0  9996,2 50836  53.2138 173.1190 0001251 101.9588 258.1545 15.08828519 62239,6917.915,95.438,540.646,538.915,0.0
50836.0,STARLINK-3330,PAYLOAD,2023-02-12 09:26:43,15.08828458,0.0001256,53.2137,172.8215,104.7631,255.35,-4.096e-05,-9.39e-06,0.0,0 STARLINK-3330,1 50836U 22001AK  23043.39355834 -.00000939  00000-0 -40960-4 0  9995,2 50836  53.2137 172.8215 0001256 104.7631 255.3500 15.08828458 60888,6917.916,95.438,540.65,538.912,0.0
50836.0,STARLINK-3330,PAYLOAD,2023-02-13 01:20:34,15.08846909,0.0001214,53.2127,169.846,107.3025,252.81,9.577e-05,1.237e-05,0.0,0 STARLINK-3330,1 50836U 22001AK  23044.05594998  .00001237  00000-0  95770-4 0  9994,2 50836  53.2127 169.8460 0001214 107.3025 252.8100 15.08846909 62347,6917.859,95.437,540.564,538.884,0.0
50836.0,STARLINK-3330,PAYLOAD,2023-02-13 09:17:30,15.08829173,0.0001321,53.2123,168.3593,102.7793,257.3347,0.00011131,1.484e-05,0.0,0 STARLINK-3330,1 50836U 22001AK  23044.38716056  .00001484  00000-0  11131-3 0  9993,2 50836  53.2123 168.3593 0001321 102.7793 257.3347 15.08829173 62396,6917.913,95.438,540.692,538.865,0.0
50836.0,STARLINK-3330,PAYLOAD,2023-02-13 17:14:25,15.08851112,0.0001282,53.2135,166.8714,107.1506,252.9627,0.00031197,4.682e-05,0.0,0 STARLINK-3330,1 50836U 22001AK  23044.71834889  .00004682  00000-0  31197-3 0  9992,2 50836  53.2135 166.8714 0001282 107.1506 252.9627 15.08851112 62440,6917.846,95.437,540.598,538.825,0.0
50836.0,STARLINK-3330,PAYLOAD,2023-02-14 01:11:21,15.08840767,0.0001916,53.2136,165.3861,90.5435,269.5777,8.5073e-05,1.066e-05,0.0,0 STARLINK-3330,1 50836U 22001AK  23045.04955759  .00001066  00000-0  85073-4 0  9995,2 50836  53.2136 165.3861 0001916  90.5435 269.5777 15.08840767 62497,6917.878,95.438,541.069,538.418,0.0
50836.0,STARLINK-3330,PAYLOAD,2023-02-14 07:32:55,15.08829266,0.0002139,53.2135,164.1973,88.5329,271.5908,9.0636e-05,1.154e-05,0.0,0 STARLINK-3330,1 50836U 22001AK  23045.31452620  .00001154  00000-0  90636-4 0  9993,2 50836  53.2135 164.1973 0002139  88.5329 271.5908 15.08829266 62539,6917.913,95.438,541.258,538.298,0.0
50836.0,STARLINK-3330,PAYLOAD,2023-02-14 13:54:27,15.08825647,0.0002166,53.2136,163.0072,89.1989,270.9251,3.151e-05,2.13e-06,0.0,0 STARLINK-3330,1 50836U 22001AK  23045.57949048  .00000213  00000-0  31510-4 0  9997,2 50836  53.2136 163.0072 0002166  89.1989 270.9251 15.08825647 61214,6917.924,95.438,541.288,538.291,0.0
50836.0,STARLINK-3330,PAYLOAD,2023-02-14 17:05:14,15.08822099,0.0001687,53.2129,162.4111,94.0835,266.035,-8.3557e-05,-1.617e-05,0.0,0 STARLINK-3330,1 50836U 22001AK  23045.71197276 -.00001617  00000-0 -83557-4 0  9990,2 50836  53.2129 162.4111 0001687  94.0835 266.0350 15.08822099 62591,6917.935,95.439,540.967,538.633,0.0
50836.0,STARLINK-3330,PAYLOAD,2023-02-15 01:02:09,15.08837134,0.0001047,53.2135,160.9247,98.446,261.665,0.00010554,1.392e-05,0.0,0 STARLINK-3330,1 50836U 22001AK  23046.04316488  .00001392  00000-0  10554-3 0  9999,2 50836  53.2135 160.9247 0001047  98.4460 261.6650 15.08837134 62649,6917.889,95.438,540.478,539.03,0.0
50836.0,STARLINK-3330,PAYLOAD,2023-02-15 13:45:13,15.0885758,0.0001104,53.2123,158.5456,93.1748,266.937,0.00042924,6.553e-05,0.0,0 STARLINK-3330,1 50836U 22001AK  23046.57307357  .00006553  00000-0  42924-3 0  9992,2 50836  53.2123 158.5456 0001104  93.1748 266.9370 15.08857580 62729,6917.827,95.436,540.455,538.928,0.0
50836.0,STARLINK-3330,PAYLOAD,2023-02-15 18:31:21,15.08890036,0.0001347,53.2145,157.6541,87.3711,272.7435,0.00075717,0.00011799,0.0,0 STARLINK-3330,1 50836U 22001AK  23046.77177511  .00011799  00000-0  75717-3 0  9995,2 50836  53.2145 157.6541 0001347  87.3711 272.7435 15.08890036 62755,6917.727,95.434,540.524,538.661,0.0
50836.0,STARLINK-3330,PAYLOAD,2023-02-16 07:14:27,15.08851413,0.0001481,53.2118,155.2728,100.3021,259.8138,0.00035273,5.332e-05,0.0,0 STARLINK-3330,1 50836U 22001AK  23047.30170873  .00005332  00000-0  35273-3 0  9998,2 50836  53.2118 155.2728 0001481 100.3021 259.8138 15.08851413 62836,6917.846,95.437,540.735,538.686,0.0
50836.0,STARLINK-3330,PAYLOAD,2023-02-16 13:35:59,15.08871937,0.0001438,53.2119,154.0831,100.3626,259.7528,0.00057189,8.833e-05,0.0,0 STARLINK-3330,1 50836U 22001AK  23047.56665535  .00008833  00000-0  57189-3 0  9999,2 50836  53.2119 154.0831 0001438 100.3626 259.7528 15.08871937 61511,6917.783,95.436,540.643,538.653,0.0
50836.0,STARLINK-3330,PAYLOAD,2023-02-16 15:11:21,15.08878308,0.0001327,53.2121,153.7861,94.3189,265.7955,0.00062839,9.737e-05,0.0,0 STARLINK-3330,1 50836U 22001AK  23047.63288991  .00009737  00000-0  62839-3 0  9996,2 50836  53.2121 153.7861 0001327  94.3189 265.7955 15.08878308 62887,6917.763,95.435,540.546,538.71,0.0
50836.0,STARLINK-3330,PAYLOAD,2023-02-16 18:22:07,15.08891677,0.0001221,53.2125,153.1926,90.1569,269.9563,0.00076362,0.00011903,0.0,0 STARLINK-3330,1 50836U 22001AK  23047.76535977  .00011903  00000-0  76362-3 0  9993,2 50836  53.2125 153.1926 0001221  90.1569 269.9563 15.08891677 62904,6917.722,95.434,540.432,538.743,0.0
50836.0,STARLINK-3330,PAYLOAD,2023-02-17 07:05:14,15.0882761,0.0001702,53.2127,150.8119,111.0895,249.0279,-0.00057875,-9.484e-05,0.0,0 STARLINK-3330,1 50836U 22001AK  23048.29530985 -.00009484  00000-0 -57875-3 0  9997,2 50836  53.2127 150.8119 0001702 111.0895 249.0279 15.08827610 62980,6917.918,95.438,540.961,538.606,0.0
50836.0,STARLINK-3330,PAYLOAD,2023-02-17 13:26:46,15.08833219,9.12e-05,53.2135,149.6256,79.6657,280.4438,-0.00061289,-0.00010027,0.0,0 STARLINK-3330,1 50836U 22001AK  23048.56026218 -.00010027  00000-0 -61289-3 0  9995,2 50836  53.2135 149.6256 0000912  79.6657 280.4438 15.08833219 63028,6917.901,95.438,540.397,539.135,0.0
50836.0,STARLINK-3330,PAYLOAD,2023-02-17 18:12:56,15.08835127,7.31e-05,53.213,148.7317,79.5372,280.5702,-0.00013707,-2.468e-05,0.0,0 STARLINK-3330,1 50836U 22001AK  23048.75898272 -.00002468  00000-0 -13707-3 0  9995,2 50836  53.2130 148.7317 0000731  79.5372 280.5702 15.08835127 61699,6917.895,95.438,540.266,539.255,0.0
50836.0,STARLINK-3330,PAYLOAD,2023-02-18 10:06:49,15.08818738,7.17e-05,53.2134,145.7585,107.3739,252.7332,0.00096876,0.00015155,0.0,0 STARLINK-3330,1 50836U 22001AK  23049.42140626  .00015155  00000-0  96876-3 0  9996,2 50836  53.2134 145.7585 0000717 107.3739 252.7332 15.08818738 63150,6917.945,95.439,540.306,539.314,0.0
50836.0,STARLINK-3330,PAYLOAD,2023-02-18 13:17:35,15.08825712,4.35e-05,53.2133,145.1637,86.0614,274.0428,0.0018463,0.00029207,0.0,0 STARLINK-3330,1 50836U 22001AK  23049.55388886  .00029207  00000-0  18463-2 0  9990,2 50836  53.2133 145.1637 0000435  86.0614 274.0428 15.08825712 61817,6917.924,95.438,540.09,539.488,0.0
50836.0,STARLINK-3330,PAYLOAD,2023-02-19 13:08:22,15.08869297,4.28e-05,53.2135,140.7033,80.2452,279.8588,0.0016354,0.00025856,0.0,0 STARLINK-3330,1 50836U 22001AK  23050.54748518  .00025856  00000-0  16354-2 0  9996,2 50836  53.2135 140.7033 0000428  80.2452 279.8588 15.08869297 63322,6917.791,95.436,539.952,539.36,0.0
50836.0,STARLINK-3330,PAYLOAD,2023-02-19 22:40:41,15.08855147,0.0001451,53.2132,138.9193,95.6182,264.4976,0.00077706,0.00012106,0.0,0 STARLINK-3330,1 50836U 22001AK  23050.94492652  .00012106  00000-0  77706-3 0  9998,2 50836  53.2132 138.9193 0001451  95.6182 264.4976 15.08855147 63388,6917.834,95.437,540.703,538.695,0.0
50836.0,STARLINK-3330,PAYLOAD,2023-02-20 12:59:09,15.08856515,0.0001356,53.2131,136.2428,96.253,263.8616,0.00059377,9.179e-05,0.0,0 STARLINK-3330,1 50836U 22001AK  23051.54108192  .00009179  00000-0  59377-3 0  9998,2 50836  53.2131 136.2428 0001356  96.2530 263.8616 15.08856515 62111,6917.83,95.437,540.633,538.757,0.0
50836.0,STARLINK-3330,PAYLOAD,2023-02-20 14:34:32,15.08862441,9.6e-05,53.2131,135.9454,76.7481,283.3618,0.000781,0.00012171,0.0,0 STARLINK-3330,1 50836U 22001AK  23051.60731997  .00012171  00000-0  78100-3 0  9991,2 50836  53.2131 135.9454 0000960  76.7481 283.3618 15.08862441 63489,6917.812,95.436,540.341,539.013,0.0
50836.0,STARLINK-3330,PAYLOAD,2023-02-21 14:25:19,15.08867232,7.96e-05,53.2123,131.4854,96.1079,264.0004,0.0022098,0.00035083,0.0,0 STARLINK-3330,1 50836U 22001AK  23052.60091746  .00035083  00000-0  22098-2 0  9994,2 50836  53.2123 131.4854 0000796  96.1079 264.0004 15.08867232 63636,6917.797,95.436,540.213,539.111,0.0
